{
    "links": {
        "self": "http://www.neowsapp.com/rest/v1/neo/3740830?api_key=iIulBulltgU6a56xZRHN4H3l9WmuAYTsLGpBGhQ2"
    },
    "id": "3740830",
    "neo_reference_id": "3740830",
    "name": "(2015 XV384)",
    "designation": "2015 XV384",
    "nasa_jpl_url": "http://ssd.jpl.nasa.gov/sbdb.cgi?sstr=3740830",
    "absolute_magnitude_h": 26.4,
    "estimated_diameter": {
        "kilometers": {
            "estimated_diameter_min": 0.0139493823,
            "estimated_diameter_max": 0.0311917671
        },
        "meters": {
            "estimated_diameter_min": 13.9493822934,
            "estimated_diameter_max": 31.1917670523
        },
        "miles": {
            "estimated_diameter_min": 0.0086677416,
            "estimated_diameter_max": 0.0193816595
        },
        "feet": {
            "estimated_diameter_min": 45.7656914036,
            "estimated_diameter_max": 102.3351970157
        }
    },
    "is_potentially_hazardous_asteroid": false,
    "close_approach_data": [
        {
            "close_approach_date": "2015-12-19",
            "close_approach_date_full": "2015-Dec-19 03:00",
            "epoch_date_close_approach": 1450494000000,
            "relative_velocity": {
                "kilometers_per_second": "9.7386341358",
                "kilometers_per_hour": "35059.0828887718",
                "miles_per_hour": "21784.3506983038"
            },
            "miss_distance": {
                "astronomical": "0.0180782085",
                "lunar": "7.0324231065",
                "kilometers": "2704461.485015895",
                "miles": "1680474.442153551"
            },
            "orbiting_body": "Earth"
        }
    ],
    "orbital_data": {
        "orbit_id": "4",
        "orbit_determination_date": "2019-12-18 11:30:24",
        "first_observation_date": "2015-12-07",
        "last_observation_date": "2015-12-08",
        "data_arc_in_days": 1,
        "observations_used": 8,
        "orbit_uncertainty": "8",
        "minimum_orbit_intersection": ".0181107",
        "jupiter_tisserand_invariant": "3.829",
        "epoch_osculation": "2457364.5",
        "eccentricity": ".5110961575754663",
        "semi_major_axis": "1.855842849950747",
        "inclination": "3.061432234341448",
        "ascending_node_longitude": "106.3259166235937",
        "orbital_period": "923.4432771638316",
        "perihelion_distance": ".9073287002770173",
        "perihelion_argument": "18.94719443729549",
        "aphelion_distance": "2.804356999624476",
        "perihelion_time": "2457404.670339075555",
        "mean_anomaly": "344.3397830437244",
        "mean_motion": ".3898452768053787",
        "equinox": "J2000",
        "orbit_class": {
            "orbit_class_type": "APO",
            "orbit_class_description": "Near-Earth asteroid orbits which cross the Earth’s orbit similar to that of 1862 Apollo",
            "orbit_class_range": "a (semi-major axis) > 1.0 AU; q (perihelion) < 1.017 AU"
        }
    },
    "is_sentry_object": false
}